24793,IRIDIUM 7,1997,100.32,-1.0,-,86.39,Inactive,0,LEO,USA,USA,Unknown,Unknown,Unknown,1 24793U 97020B   24269.75601203  .00000906  00000+0  30876-3 0  9991,2 24793  86.3904 287.7021 0002000  91.3757 268.7668 14.35439443433955,14.35439443,0.0002,LEO
24795,IRIDIUM 5,1997,96.67,-1.0,-,86.4,Inactive,0,LEO,USA,USA,Unknown,Unknown,Unknown,1 24795U 97020D   24269.58104199  .00016692  00000+0  15264-2 0  9998,2 24795  86.3960 205.2302 0118728   7.0267 353.2587 14.89596860446030,14.8959686,0.0118728,LEO
24796,IRIDIUM 4,1997,100.25,-1.0,-,86.39,Inactive,0,LEO,USA,USA,Unknown,Unknown,Unknown,1 24796U 97020E   24270.46430829  .00000984  00000+0  32970-3 0  9991,2 24796  86.3898 284.4523 0002220  87.8816 272.2635 14.36366458434637,14.36366458,0.000222,LEO
24836,IRIDIUM 914,1997,99.98,-1.0,-,86.39,Inactive,0,LEO,Kazakhstan,USA,Unknown,Unknown,Unknown,1 24836U 97030A   24269.80563977  .00001035  00000+0  32089-3 0  9993,2 24836  86.3888 294.1293 0003146  58.8439 301.3069 14.40264389569066,14.40264389,0.0003146,LEO
24841,IRIDIUM 16,1997,100.13,-1.0,-,86.4,Inactive,0,LEO,Kazakhstan,USA,Unknown,Unknown,Unknown,1 24841U 97030F   24270.55512031  .00001021  00000+0  33014-3 0  9992,2 24841  86.4028 316.0671 0002282 150.7297 209.4029 14.38163912429366,14.38163912,0.0002282,LEO
24842,IRIDIUM 911,1997,99.52,-1.0,-,86.45,Inactive,0,LEO,Kazakhstan,USA,Unknown,Unknown,Unknown,1 24842U 97030G   24269.87448755  .00001284  00000+0  34854-3 0  9991,2 24842  86.4451 315.3882 0012052 256.3973 103.5888 14.46883823436839,14.46883823,0.0012052,LEO
24870,IRIDIUM 17,1997,100.19,-1.0,-,86.4,Inactive,0,LEO,USA,USA,Unknown,Unknown,Unknown,1 24870U 97034B   24270.44885166  .00001200  00000+0  39617-3 0  9992,2 24870  86.4009 345.6760 0003267 121.0675 239.0843 14.37272159425697,14.37272159,0.0003267,LEO
24871,IRIDIUM 920,1997,99.93,-1.0,-,86.4,Inactive,0,LEO,USA,USA,Unknown,Unknown,Unknown,1 24871U 97034C   24270.19672874  .00001017  00000+0  31050-3 0  9994,2 24871  86.3989 325.6298 0009944 224.6892 135.3507 14.40969840428813,14.4096984,0.0009944,LEO
